QIANFAN-41              
1 62242U 24232F   25308.76691054  .00000039  00000+0  41415-4 0  9995
2 62242  89.0042  45.0202 0012179 303.2507  56.7477 13.50970029 94122
QIANFAN-42              
1 62243U 24232G   25308.76916926  .00000646  00000+0  27260-3 0  9999
2 62243  89.0036  41.6855 0014513 200.4884 159.5729 14.24424905 95966
QIANFAN-43              
1 62244U 24232H   25308.76278736  .00000155  00000+0  22227-3 0  9993
2 62244  89.0047  45.0842 0013748 308.9757  51.0169 13.50985616 62737
QIANFAN-44              
1 62245U 24232J   25308.82452152  .00000157  00000+0  22529-3 0  9994
2 62245  89.0045  44.8894 0011922 305.7786  54.2256 13.50972702 94211
QIANFAN-45              
1 62246U 24232K   25308.79162610  .00000152  00000+0  21756-3 0  9994
2 62246  89.0049  45.0378 0012560 305.4070  54.5908 13.50983324 94138
QIANFAN-46              
1 62247U 24232L   25308.81628100  .00000133  00000+0  18775-3 0  9995
2 62247  89.0044  45.1058 0012742 311.4875  48.5181 13.50977948 94098
QIANFAN-47              
1 62248U 24232M   25308.82040072  .00000166  00000+0  23825-3 0  9991
2 62248  89.0040  45.0399 0013129 310.4463  49.5542 13.50970357 94127
QIANFAN-48              
1 62249U 24232N   25308.78346479  .00000179  00000+0  25891-3 0  9996
2 62249  89.0045  45.0441 0015405 313.0476  46.9384 13.50981957 94126
